OUFTI-1                 
1 41458U 16025C   22275.48649627  .00018912  00000+0  76056-3 0  9997
2 41458  98.1947  90.4519 0134936 260.5620  98.0337 15.16889246353794
E-ST@R-II               
1 41459U 16025D   22275.45419654  .00014099  00000+0  58462-3 0  9993
2 41459  98.1942  88.7661 0138677 265.5259  93.0194 15.15566219353693
AAUSAT 4                
1 41460U 16025E   22275.50175964  .00028346  00000+0  99946-3 0  9996
2 41460  98.1828  96.0869 0116210 237.7478 121.2852 15.22959835354215
AIST-2D (RS-48)         
1 41465U 16026B   22275.60845780  .00017034  00000+0  37695-3 0  9998
2 41465  97.0377 148.4203 0010988  98.8201 314.9973 15.43799455360053
NUSAT-1 (FRESCO)        
1 41557U 16033B   22275.36188350  .00017633  00000+0  48598-3 0  9993
2 41557  97.3901  13.4206 0009951   1.0380  72.3051 15.37138794353798
NUSAT-2 (BATATA)        
1 41558U 16033C   22275.45306808  .00018300  00000+0  47436-3 0  9996
2 41558  97.4119  19.8210 0009454 348.5244  81.6633 15.39032085354093
CARTOSAT-2C             
1 41599U 16040A   22275.43465476  .00004002  00000+0  19253-3 0  9994
2 41599  97.4753 334.0392 0014170 166.5858 249.2288 15.19279279348171
SATHYABAMASAT           
1 41600U 16040B   22275.11043126  .00032223  00000+0  91304-3 0  9999
2 41600  97.2082 325.1559 0011778  99.1699 261.0879 15.36127953349256
LAPAN-A3                
1 41603U 16040E   22275.36228009  .00001692  00000+0  79253-4 0  9990
2 41603  97.1976 307.6990 0014223 139.3705 343.8620 15.20927284348280
BIROS                   
1 41604U 16040F   22275.43780204  .00005576  00000+0  22551-3 0  9992
2 41604  97.2005 315.8093 0013195 112.1824 248.0816 15.25028893348767
SWAYAM                  
1 41607U 16040J   22275.13196578  .00022160  00000+0  65396-3 0  9999
2 41607  97.2036 323.2433 0012110  99.3871 260.8743 15.34921367349129
BEESAT-4                
1 41619U 16040W   22275.07762987  .00024082  00000+0  73545-3 0  9998
2 41619  97.2051 322.9789 0010522  96.3436 263.9006 15.33838989337059
3CAT-2                  
1 41732U 16051B   22275.37602122  .00015752  00000+0  45553-3 0  9995
2 41732  97.3777 198.5233 0008315 272.4462 206.6546 15.35674767341721
PRATHAM                 
1 41783U 16059A   22275.36601881  .00000560  00000+0  11629-3 0  9997
2 41783  97.9037 312.5911 0033062 193.8236 166.2065 14.63439162321267
ALSAT 1N                
1 41789U 16059G   22275.53279907  .00000579  00000+0  11669-3 0  9996
2 41789  97.9065 317.5742 0028199 175.0412 185.1082 14.64789051321540
LISHUI 1-01             
1 41845U 16066E   22275.38163378  .00050959  00000+0  44361-2 0  9995
2 41845  98.7291  55.5042 0193822  91.0802 271.2567 14.83351572312629
CARTOSAT-2D             
1 41948U 17008A   22275.39122391  .00003935  00000+0  19019-3 0  9992
2 41948  97.4530 333.7414 0005874 318.3572  41.7225 15.19196906312031
NAYIF-1 (EO-88)         
1 42017U 17008BX  22275.46170479  .00026978  00000+0  72503-3 0  9997
2 42017  97.2574 340.1843 0004189 203.7360 156.3692 15.37872808313509
ZHUHAI-1 02 (CAS-4B)    
1 42759U 17034B   22275.37761383  .00004598  00000+0  27104-3 0  9990
2 42759  43.0166 103.0479 0010637 248.6610 177.5001 15.12602637292543
ZHUHAI-1 01 (CAS-4A)    
1 42761U 17034D   22275.40853933  .00004308  00000+0  25420-3 0  9998
2 42761  43.0167 101.5844 0011054 250.5864 182.1386 15.12680539292559
UCLSAT                  
1 42765U 17036A   22275.39407647  .00016965  00000+0  54992-3 0  9997
2 42765  97.1868 314.8053 0007088 308.0858  51.9744 15.32034852294215
NIUSAT                  
1 42766U 17036B   22275.52880125  .00011898  00000+0  43724-3 0  9990
2 42766  97.1931 309.5832 0011479 311.8647  48.1612 15.27991519293149
CARTOSAT-2E             
1 42767U 17036C   22275.41980647  .00004360  00000+0  21015-3 0  9994
2 42767  97.4427 334.4671 0008068  14.2008  42.5241 15.19218535292603
LITUANICASAT-2          
1 42768U 17036D   22275.36655717  .00040582  00000+0  98620-3 0  9998
2 42768  97.1942 318.7133 0007314 277.5040  82.5376 15.40854475293689
AALTO-1                 
1 42775U 17036L   22275.36715451  .00009660  00000+0  36743-3 0  9998
2 42775  97.1886 309.1476 0010519 313.2032  46.8328 15.26918573293086
URSA MAIOR              
1 42776U 17036M   22275.37009342  .00010451  00000+0  38911-3 0  9994
2 42776  97.1899 309.9952 0010128 311.2360  48.8006 15.27609141293125
COMPASS 2               
1 42777U 17036N   22275.39664171  .00026583  00000+0  75711-3 0  9996
2 42777  97.1936 317.4984 0007009 287.4474  72.6004 15.36051714293547
MAX VALIER SAT          
1 42778U 17036P   22275.41480823  .00011160  00000+0  40406-3 0  9998
2 42778  97.1954 312.8866 0008747 311.8868  48.1625 15.28523822293233
PEGASUS                 
1 42784U 17036V   22275.05721305  .00017706  00000+0  59299-3 0  9990
2 42784  97.1891 313.6199 0008010 313.2871  46.7702 15.30967493293319
NUDTSAT                 
1 42787U 17036Y   22275.63674689  .00027006  00000+0  73488-3 0  9999
2 42787  97.1915 319.1909 0005855 293.4392  66.6237 15.37477062293544
SUCHAI                  
1 42788U 17036Z   22275.11037167  .00022467  00000+0  70001-3 0  9991
2 42788  97.1892 315.6236 0007063 305.6270  54.4314 15.33246090293516
SKCUBE                  
1 42789U 17036AA  22275.36342521  .00016271  00000+0  52439-3 0  9993
2 42789  97.1892 315.1984 0007220 306.7264  53.3315 15.32228346293435
VZLUSAT-1               
1 42790U 17036AB  22275.07116837  .00033981  00000+0  93123-3 0  9994
2 42790  97.1909 318.5773 0005792 293.3628  66.7008 15.37212251293605
ROBUSTA-1B              
1 42792U 17036AD  22275.08157466  .00021185  00000+0  66671-3 0  9991
2 42792  97.1890 315.5780 0006764 307.5660  52.4968 15.32939754293443
D-SAT                   
1 42794U 17036AF  22275.52508032  .00003354  00000+0  28234-3 0  9992
2 42794  97.4560 275.3317 0123847  86.6595 274.8784 14.93036479287453
NORSAT 2                
1 42828U 17042D   22275.52611113  .00003384  00000+0  32832-3 0  9994
2 42828  97.4175 125.8733 0014229  11.9054 348.2500 14.93203326284140
TECHNOSAT               
1 42829U 17042E   22275.52527853  .00001971  00000+0  19881-3 0  9991
2 42829  97.4090 123.3696 0014394  15.3738 344.7916 14.92090670284055
2017-042F               
1 42830U 17042F   22275.52756432  .00007342  00000+0  66098-3 0  9990
2 42830  97.4219 128.4761 0013302   2.6009 357.5279 14.95821316284288
FLYING LAPTOP           
1 42831U 17042G   22275.57625470  .00000600  00000+0  64341-4 0  9993
2 42831  97.4104 123.7534 0014294  15.4014 344.7671 14.91957391284066
CORVUS BC2              
1 42846U 17042X   22275.51499286  .00001880  00000+0  18520-3 0  9995
2 42846  97.4099 126.7142 0009567   7.8625 352.2744 14.93134731284256
CORVUS BC1              
1 42847U 17042Y   22275.52130978  .00001849  00000+0  18181-3 0  9995
2 42847  97.4100 127.0440 0009235   7.1108 353.0242 14.93227418284264
CZ-4C R/B               
1 43012U 17072C   22275.51826423  .00000339  00000+0  80343-4 0  9992
2 43012  98.6877 316.1885 0126910 350.5717   9.3099 14.56406856259445
RADFXSAT (FOX-1B)       
1 43017U 17073E   22275.20360767  .00004042  00000+0  30397-3 0  9996
2 43017  97.6584 165.0016 0245726 197.7055 161.5484 14.82110591262927
EAGLESAT 1              
1 43018U 17073F   22275.23968601  .00007034  00000+0  50325-3 0  9998
2 43018  97.6621 167.2360 0237004 190.2511 169.3827 14.84813123262932
INS-1C                  
1 43116U 18004F   22275.44004916  .00016862  00000+0  54347-3 0  9992
2 43116  97.3674 350.8093 0006611 341.8841  18.2165 15.32227254262707
FLOCK 3P'-3             
1 43119U 18004J   22275.19577325  .00008233  00000+0  30044-3 0  9997
2 43119  97.3662 348.0574 0008594 357.4061   2.7133 15.28362090262514
FLOCK 3P'-2             
1 43120U 18004K   22275.16578373  .00008099  00000+0  29911-3 0  9991
2 43120  97.3666 347.5829 0008433 359.4825   0.6404 15.27973549262478
FLOCK 3P'-1             
1 43121U 18004L   22275.18592002  .00036333  00000+0  85935-3 0  9999
2 43121  97.3704 354.3822 0004899 324.0122  36.0795 15.41713992262859
FLOCK 3P'-4             
1 43122U 18004M   22275.15234264  .00008370  00000+0  30927-3 0  9991
2 43122  97.3674 347.7497 0008390   1.6673 358.4593 15.27946197262473
MICROMAS-2A             
1 43131U 18004W   22275.48064527  .00037934  00000+0  91779-3 0  9990
2 43131  97.3672 355.3024 0004772 329.5679  30.5290 15.41019829263034
PICSAT                  
1 43132U 18004X   22275.17683222  .00018531  00000+0  56383-3 0  9990
2 43132  97.3634 351.1082 0006467 347.2243  12.8835 15.34048040262753
CNUSAIL-1               
1 43133U 18004Y   22275.46903115  .00013153  00000+0  45035-3 0  9996
2 43133  97.3587 348.8045 0007454 354.1978   5.9176 15.30324996262655
2018-004Z               
1 43134U 18004Z   22275.47132595  .00017331  00000+0  55500-3 0  9994
2 43134  97.3615 350.4317 0006780 349.7610  10.3493 15.32427979262742
FOX-1D (AO-92)          
1 43137U 18004AC  22275.46714563  .00014830  00000+0  49274-3 0  9999
2 43137  97.3596 349.7417 0006815 353.3877   6.7273 15.31275692262714
STEP CUBE LAB           
1 43138U 18004AD  22275.17428044  .00029943  00000+0  79472-3 0  9998
2 43138  97.3670 354.0105 0005264 341.1646  18.9404 15.38233711262924
XIAOXIANG-2             
1 43155U 18008A   22275.42504809  .00008889  00000+0  45627-3 0  9994
2 43155  97.3412 330.4081 0017037 129.5697 286.3258 15.16615125259487
ZHOU ENLAI              
1 43156U 18008B   22275.40180411  .00009378  00000+0  48419-3 0  9998
2 43156  97.3463 330.2967 0014503 129.5549   0.5590 15.16429390259400
QUANTUTONG 1            
1 43158U 18008D   22275.11993502  .00007859  00000+0  42058-3 0  9996
2 43158  97.3423 327.7763 0013806 131.7410 281.8434 15.15223643259256
S-NET D                 
1 43186U 18014G   22275.29944117  .00002919  00000+0  25032-3 0  9996
2 43186  97.6482 178.9588 0008970 307.9298  52.1113 14.98256835254913
